STARLINK-4498           
1 53434U 22097AY  26068.79514616  .00001141  00000+0  89756-4 0  9995
2 53434  53.2166 103.3697 0001296  90.4558 269.6582 15.08843577198815
LEMUR-2-AHMED-ASRAR     
1 60576U 24149DN  26068.73265438  .00013045  00000+0  79773-3 0  9992
2 60576  97.7021 152.9847 0001633  18.5035 341.6253 15.10376432 85541
